HYPERFIELD-1A           
1 60562U 24149CY  26068.76488211  .00008569  00000+0  30052-3 0  9998
2 60562  97.3842 149.5066 0003865 313.7844  46.3076 15.29681349 86836
STARLINK-34850          
1 65460U 25195C   26068.71399470  .00027705  00000+0  94311-3 0  9996
2 65460  53.1596 258.3347 0001048  68.1690 291.9422 15.30232482 29995
